satname,norad_id,inclination_deg,eccentricity,mean_motion_rev_per_day,perigee_km,apogee_km,l1,l2
STARLINK-1265,45406,53.1613,0.0001686,15.30507091,473.14298377172054,475.45362495635254,1 45406U 20019AY  26083.20014587  .00010888  00000+0  37565-3 0  9990,2 45406  53.1613  61.9382 0001686  90.1932 269.9263 15.30507091332190
STARLINK-1278,45408,53.0451,0.0003371,15.58214491,390.5420768837794,395.1070591729449,1 45408U 20019BA  26083.22104507  .00040043  00000+0  52438-3 0  9998,2 45408  53.0451  59.8923 0003371  83.8236 276.3160 15.58214491332228
STARLINK-1296,45412,53.1619,0.0001964,15.31077175,471.25174928261913,473.9427176895324,1 45412U 20019BE  26083.19094587  .00030137  00000+0  99809-3 0  9991,2 45412  53.1619  61.8526 0001964  68.5188 291.6022 15.31077175332194
STARLINK-1298,45413,53.0291,0.0001821,16.16490324,227.89504695251526,230.30140202127222,1 45413U 20019BF  26083.93645927  .01083017  82359-3  72378-3 0  9993,2 45413  53.0291 334.5490 0001821 221.2389 138.8510 16.16490324333568
STARLINK-1309,45414,53.0669,0.000674,15.57366732,390.7162616108171,399.84682981043443,1 45414U 20019BG  26083.20648226  .00061146  00000+0  82030-3 0  9992,2 45414  53.0669  53.3260 0006740  82.8529 277.3249 15.57366732332297
STARLINK-1316,45415,53.1588,0.0001107,15.31066287,471.8713323728616,473.3880921229529,1 45415U 20019BH  26083.17090028  .00006775  00000+0  23437-3 0  9993,2 45415  53.1588  61.9972 0001107 118.5842 241.5271 15.31066287332215
STARLINK-1286,45417,53.0488,0.0003745,15.51932675,408.5410838414773,413.6262101060611,1 45417U 20019BK  26083.22968778  .00034658  00000+0  57260-3 0  9999,2 45417  53.0488  60.8001 0003745  93.0732 267.0706 15.51932675332481
STARLINK-1308,45419,53.0534,0.0005328,15.53116115,404.01892623660933,411.2498442247106,1 45419U 20019BM  26083.17192355  .00037997  00000+0  60054-3 0  9999,2 45419  53.0534  82.4148 0005328  67.1381 293.0190 15.53116115331927
STARLINK-1329,45531,53.0467,0.0001025,15.64559731,373.8131177392743,375.19740940330576,1 45531U 20025A   26083.58335647  .00072478  00000+0  73624-3 0  9999,2 45531  53.0467   8.9545 0001025 105.1998 260.7011 15.64559731  5915
STARLINK-1338,45532,53.0497,0.0004959,15.56963339,393.0919249629542,399.81096178109055,1 45532U 20025B   26083.08907902  .00040174  00000+0  55109-3 0  9990,2 45532  53.0497  14.9980 0004959  61.2925 298.8584 15.56963339327648
STARLINK-1350,45535,53.0725,0.0002342,15.3650958,454.83964086083233,458.04095686761957,1 45535U 20025E   26083.36276399  .00009947  00000+0  28545-3 0  9990,2 45535  53.0725 324.2136 0002342  98.9572 261.1696 15.36509580328419
STARLINK-1362,45538,53.1626,0.0001188,15.29770756,475.6826837859544,477.3113448277545,1 45538U 20025H   26083.15572751 -.00177787  00000+0 -62167-2 0  9998,2 45538  53.1626  33.8029 0001188  86.9784 273.1353 15.29770756327392
STARLINK-1368,45540,53.1604,0.0001027,15.30221735,474.44634080252945,475.85400598794513,1 45540U 20025K   26083.10005322  .00004565  00000+0  16606-3 0  9990,2 45540  53.1604  34.3917 0001027  88.1490 271.9629 15.30221735327373
STARLINK-1371,45542,53.0512,0.0002103,15.49349412,417.1987324007441,420.05745179848054,1 45542U 20025M   26083.52958440  .00025280  00000+0  46042-3 0  9990,2 45542  53.0512  18.3949 0002103  77.0503 283.0739 15.49349412327635
STARLINK-1372,45543,53.1619,0.0001205,15.3019015,474.4186474332864,476.07031236994317,1 45543U 20025N   26083.14217186 -.00000379  00000+0 -68376-6 0  9995,2 45543  53.1619  33.8942 0001205  93.2403 266.8736 15.30190150326482
STARLINK-1373,45544,53.0499,0.0004927,15.53136247,404.2324255991716,410.9190669393447,1 45544U 20025P   26083.12111790  .00033620  00000+0  53216-3 0  9995,2 45544  53.0499  19.5055 0004927  69.2542 290.8995 15.53136247327583
STARLINK-1327,45555,53.047,0.0006731,15.56627299,392.8657617042136,401.98702514444085,1 45555U 20025AA  26083.04530278  .00045059  00000+0  62438-3 0  9999,2 45555  53.0470 357.1727 0006731 116.2464 243.9239 15.56627299327880
STARLINK-1356,45564,53.0516,0.0005835,15.46986653,421.5769838323067,429.5168829825934,1 45564U 20025AK  26083.47027771  .00047265  00000+0  92394-3 0  9990,2 45564  53.0516   3.3573 0005835  91.5626 268.6049 15.46986653327838
STARLINK-1357,45565,53.0519,0.000435,15.58413904,389.301835288089,395.19206932659563,1 45565U 20025AL  26082.96361783  .00071099  00000+0  91543-3 0  9995,2 45565  53.0519 328.7885 0004350 163.6227 196.4926 15.58413904328280
STARLINK-1361,45567,53.05,0.0007614,15.50024369,411.48129670199796,421.828405733032,1 45567U 20025AN  26083.46506701  .00036633  00000+0  64650-3 0  9998,2 45567  53.0500   3.1187 0007614  88.8486 271.3394 15.50024369327840
STARLINK-1363,45568,53.0403,0.0006486,15.80390014,324.98641182078336,333.68734693711485,1 45568U 20025AP  26083.58335647  .00179002  00000+0  91064-3 0  9998,2 45568  53.0403 323.1291 0006486 116.3151 287.3980 15.80390014  5618
STARLINK-1366,45569,53.0412,0.0006906,15.79070143,328.4392393805947,337.70876401613987,1 45569U 20025AQ  26083.00002315  .00135471  00000+0  73629-3 0  9998,2 45569  53.0412 326.9461 0006906 109.7442  74.3862 15.79070143  5940
STARLINK-1376,45570,53.1598,0.0001496,15.31184378,471.2526468850583,473.30229089415116,1 45570U 20025AR  26083.08507104  .00034882  00000+0  11488-2 0  9992,2 45570  53.1598  10.9012 0001496 127.6055 232.5082 15.31184378327705
STARLINK-1320,45572,53.0475,0.0005704,15.70943064,352.35923536216796,360.0417675838471,1 45572U 20025AT  26083.25835229  .00075608  00000+0  59161-3 0  9997,2 45572  53.0475 273.7154 0005704  95.4283 264.7385 15.70943064329092
STARLINK-1321,45573,53.0502,0.0004676,15.50831423,411.12116076580423,417.47344532601255,1 45573U 20025AU  26083.46247447  .00093008  00000+0  15730-2 0  9997,2 45573  53.0502 347.6311 0004676 117.2957 242.8527 15.50831423327757
STARLINK-1331,45578,53.0533,0.0005466,15.50635894,411.1552335996694,418.5813469830164,1 45578U 20025AZ  26083.47077726  .00058928  00000+0  10106-2 0  9998,2 45578  53.0533 354.2837 0005466 135.7053 224.4393 15.50635894327978
STARLINK-1333,45580,53.1628,0.0001471,15.30184718,474.2525642949395,476.2688338980124,1 45580U 20025BB  26083.51982536  .00000102  00000+0  15580-4 0  9994,2 45580  53.1628   8.9238 0001471  93.9808 266.1361 15.30184718327778
STARLINK-1335,45581,53.1582,0.0001305,15.29349217,476.8618375659944,478.6512257777604,1 45581U 20025BC  26083.08015006 -.00000028  00000+0  11380-4 0  9998,2 45581  53.1582   8.2902 0001305  93.2806 266.8343 15.29349217327734
STARLINK-1337,45582,53.053,0.0005183,15.60563508,382.5223968984319,389.5341306108403,1 45582U 20025BD  26083.29879236  .00082787  00000+0  97982-3 0  9997,2 45582  53.0530 350.6811 0005183 137.5777 222.5637 15.60563508327996
STARLINK-1347,45586,53.0449,0.0004805,15.56818792,393.615382156956,400.1261646271869,1 45586U 20025BH  26082.94443373  .00040145  00000+0  55367-3 0  9994,2 45586  53.0449 320.4974 0004805 121.2361 238.9121 15.56818792328389
STARLINK-1364,45589,53.0499,0.0007685,15.52017507,405.61892330147384,416.0535751855605,1 45589U 20025BL  26083.44533322  .00044734  00000+0  73308-3 0  9990,2 45589  53.0499 352.3056 0007685 113.8530 246.3285 15.52017507327986
STARLINK-1365,45590,53.053,0.0004446,15.47440877,421.1911413423286,427.23979315620727,1 45590U 20025BM  26083.53231395  .00041021  00000+0  79133-3 0  9995,2 45590  53.0530  22.6959 0004446  97.3736 262.7776 15.47440877327586
STARLINK-1443,45660,53.1348,0.0003522,15.2633242,484.36951733593105,489.2051700436268,1 45660U 20035D   26083.06039372  .00032003  00000+0  12238-2 0  9995,2 45660  53.1348 358.5728 0003522 109.7126 250.4253 15.26332420320951
STARLINK-1446,45663,53.0239,9.64e-05,15.43469107,435.2231445590023,436.5368870396496,1 45663U 20035G   26082.86481279  .00019452  00000+0  43582-3 0  9992,2 45663  53.0239 292.0125 0000964 354.7240   5.3754 15.43469107321867
STARLINK-1448,45665,53.0503,0.0007626,15.55199292,396.4031668559537,406.74358111835863,1 45665U 20035J   26083.50824796  .00064765  00000+0  94030-3 0  9992,2 45665  53.0503 341.2113 0007626 135.6994 224.4627 15.55199292321222
STARLINK-1451,45668,53.0545,0.0002109,15.10790597,532.3298851785903,535.2453349791213,1 45668U 20035M   26083.50227229  .00015817  00000+0  95713-3 0  9996,2 45668  53.0545 359.1436 0002109  79.8334 280.2895 15.10790597320980
STARLINK-1452,45669,53.032,0.0006375,15.47253272,420.42846432198803,429.10216477303584,1 45669U 20035N   26083.35259382  .00044615  00000+0  86480-3 0  9994,2 45669  53.0320 311.7393 0006375 110.8356 249.3334 15.47253272321638
STARLINK-1453,45670,53.0465,0.0004728,15.55418833,397.7302613039574,404.14055217176974,1 45670U 20035P   26083.30418869  .00062336  00000+0  89894-3 0  9990,2 45670  53.0465 302.7590 0004728 107.8321 252.3205 15.55418833321644
STARLINK-1454,45671,53.0497,0.0007811,15.53849929,400.19910849766893,410.7965027910468,1 45671U 20035Q   26083.42777997  .00057632  00000+0  88054-3 0  9994,2 45671  53.0497 341.8651 0007811 119.1945 240.9847 15.53849929321205
STARLINK-1456,45673,53.049,0.0002403,15.52145203,408.8325878341175,412.0951894211912,1 45673U 20035S   26082.98769976  .00093527  00000+0  15095-2 0  9991,2 45673  53.0490 337.6056 0002403 165.0818 195.0263 15.52145203321242
STARLINK-1457,45674,53.0449,0.0006619,15.82900686,317.80744523513204,326.6774075197709,1 45674U 20035T   26083.58335647  .00188237  00000+0  85128-3 0  9991,2 45674  53.0449 307.6134 0006619 133.8742 195.1469 15.82900686  5989
STARLINK-1458,45675,53.0525,0.0006751,15.44671563,427.74553501006903,436.94104549797066,1 45675U 20035U   26083.43701551  .00044953  00000+0  95174-3 0  9995,2 45675  53.0525 345.3819 0006751 128.8898 231.2711 15.44671563321134
STARLINK-1460,45676,53.1624,0.0001412,15.30195469,474.26090297952305,476.1962934244548,1 45676U 20035V   26083.49081046  .00000016  00000+0  12664-4 0  9998,2 45676  53.1624 356.1981 0001412  88.1138 272.0025 15.30195469320984
